{
    "links": {
        "self": "http://www.neowsapp.com/rest/v1/neo/3892654?api_key=iIulBulltgU6a56xZRHN4H3l9WmuAYTsLGpBGhQ2"
    },
    "id": "3892654",
    "neo_reference_id": "3892654",
    "name": "(2019 VE2)",
    "designation": "2019 VE2",
    "nasa_jpl_url": "http://ssd.jpl.nasa.gov/sbdb.cgi?sstr=3892654",
    "absolute_magnitude_h": 27.4,
    "estimated_diameter": {
        "kilometers": {
            "estimated_diameter_min": 0.0088014652,
            "estimated_diameter_max": 0.0196806745
        },
        "meters": {
            "estimated_diameter_min": 8.801465209,
            "estimated_diameter_max": 19.6806745089
        },
        "miles": {
            "estimated_diameter_min": 0.0054689752,
            "estimated_diameter_max": 0.0122290004
        },
        "feet": {
            "estimated_diameter_min": 28.8761991163,
            "estimated_diameter_max": 64.5691441559
        }
    },
    "is_potentially_hazardous_asteroid": false,
    "close_approach_data": [
        {
            "close_approach_date": "2019-11-09",
            "close_approach_date_full": "2019-Nov-09 08:07",
            "epoch_date_close_approach": 1573286820000,
            "relative_velocity": {
                "kilometers_per_second": "5.0248177423",
                "kilometers_per_hour": "18089.3438723975",
                "miles_per_hour": "11240.0148078239"
            },
            "miss_distance": {
                "astronomical": "0.0182170784",
                "lunar": "7.0864434976",
                "kilometers": "2725236.126263008",
                "miles": "1693383.2056371904"
            },
            "orbiting_body": "Earth"
        }
    ],
    "orbital_data": {
        "orbit_id": "1",
        "orbit_determination_date": "2019-11-05 08:12:04",
        "first_observation_date": "2019-11-03",
        "last_observation_date": "2019-11-05",
        "data_arc_in_days": 2,
        "observations_used": 15,
        "orbit_uncertainty": "7",
        "minimum_orbit_intersection": ".0160461",
        "jupiter_tisserand_invariant": "4.653",
        "epoch_osculation": "2459000.5",
        "eccentricity": ".2979884704603838",
        "semi_major_axis": "1.422133641393977",
        "inclination": "5.158563675372319",
        "ascending_node_longitude": "225.7471750042487",
        "orbital_period": "619.4539718400799",
        "perihelion_distance": ".9983542128047301",
        "perihelion_argument": "196.8008471994209",
        "aphelion_distance": "1.845913069983224",
        "perihelion_time": "2458810.889300056318",
        "mean_anomaly": "110.1935819007838",
        "mean_motion": ".5811569807690872",
        "equinox": "J2000",
        "orbit_class": {
            "orbit_class_type": "APO",
            "orbit_class_description": "Near-Earth asteroid orbits which cross the Earth’s orbit similar to that of 1862 Apollo",
            "orbit_class_range": "a (semi-major axis) > 1.0 AU; q (perihelion) < 1.017 AU"
        }
    },
    "is_sentry_object": false
}